{
  "type": "FeatureCollection",
  "features": [
    {
      "type": "Feature",
      "properties": {
        "norad_id": 41890,
        "name": "CYGFM07",
        "group": "weather",
        "lat": -30.28121605430047,
        "lon": -136.20944724019395,
        "alt_km": 411.42515632122195,
        "timestamp": "2025-12-17T23:38:06.507386+00:00",
        "meta_object_name": "CYGFM07",
        "meta_object_id": "2016-078G",
        "meta_epoch": "2025-12-17T10:13:57.494496",
        "meta_mean_motion": 15.50196699,
        "meta_eccentricity": 0.00101412,
        "meta_inclination": 34.9484,
        "meta_ra_of_asc_node": 350.7211,
        "meta_arg_of_pericenter": 255.6355,
        "meta_mean_anomaly": 104.3242,
        "meta_ephemeris_type": 0,
        "meta_classification_type": "U",
        "meta_norad_cat_id": 41890,
        "meta_element_set_no": 999,
        "meta_rev_at_epoch": 50068,
        "meta_bstar": 0.0003228489,
        "meta_mean_motion_dot": 0.0001883,
        "meta_mean_motion_ddot": 0,
        "tle_line1": "1 41890U 16078G   25351.42635989  .00018830  00000+0  32285-3 0  9998",
        "tle_line2": "2 41890  34.9484 350.7211 0010141 255.6355 104.3242 15.50196699500689"
      },
      "geometry": {
        "type": "Point",
        "coordinates": [
          -136.20944724019395,
          -30.28121605430047
        ]
      }
    },
    {
      "type": "Feature",
      "properties": {
        "norad_id": 41891,
        "name": "CYGFM03",
        "group": "weather",
        "lat": 33.481234601846154,
        "lon": 60.28761198964628,
        "alt_km": 416.6977410640138,
        "timestamp": "2025-12-17T23:38:06.507397+00:00",
        "meta_object_name": "CYGFM03",
        "meta_object_id": "2016-078H",
        "meta_epoch": "2025-12-17T09:24:14.472288",
        "meta_mean_motion": 15.50092545,
        "meta_eccentricity": 0.00096623,
        "meta_inclination": 34.9438,
        "meta_ra_of_asc_node": 352.869,
        "meta_arg_of_pericenter": 243.4739,
        "meta_mean_anomaly": 116.4992,
        "meta_ephemeris_type": 0,
        "meta_classification_type": "U",
        "meta_norad_cat_id": 41891,
        "meta_element_set_no": 999,
        "meta_rev_at_epoch": 50065,
        "meta_bstar": 0.00032562614,
        "meta_mean_motion_dot": 0.00018919,
        "meta_mean_motion_ddot": 0,
        "tle_line1": "1 41891U 16078H   25351.39183417  .00018919  00000+0  32563-3 0  9996",
        "tle_line2": "2 41891  34.9438 352.8690 0009662 243.4739 116.4992 15.50092545500658"
      },
      "geometry": {
        "type": "Point",
        "coordinates": [
          60.28761198964628,
          33.481234601846154
        ]
      }
    },
    {
      "type": "Feature",
      "properties": {
        "norad_id": 43010,
        "name": "FENGYUN 3D",
        "group": "weather",
        "lat": 20.23752326146573,
        "lon": 141.71894968532882,
        "alt_km": 825.527220372609,
        "timestamp": "2025-12-17T23:38:06.507407+00:00",
        "meta_object_name": "FENGYUN 3D",
        "meta_object_id": "2017-072A",
        "meta_epoch": "2025-12-17T14:25:46.188192",
        "meta_mean_motion": 14.19686227,
        "meta_eccentricity": 0.00011713,
        "meta_inclination": 98.9888,
        "meta_ra_of_asc_node": 317.9843,
        "meta_arg_of_pericenter": 167.1115,
        "meta_mean_anomaly": 193.0091,
        "meta_ephemeris_type": 0,
        "meta_classification_type": "U",
        "meta_norad_cat_id": 43010,
        "meta_element_set_no": 999,
        "meta_rev_at_epoch": 41922,
        "meta_bstar": 0.00015056881,
        "meta_mean_motion_dot": 2.72e-06,
        "meta_mean_motion_ddot": 0,
        "tle_line1": "1 43010U 17072A   25351.60122903  .00000272  00000+0  15057-3 0  9995",
        "tle_line2": "2 43010  98.9888 317.9843 0001171 167.1115 193.0091 14.19686227419224"
      },
      "geometry": {
        "type": "Point",
        "coordinates": [
          141.71894968532882,
          20.23752326146573
        ]
      }
    },
    {
      "type": "Feature",
      "properties": {
        "norad_id": 43013,
        "name": "NOAA 20 (JPSS-1)",
        "group": "weather",
        "lat": -50.626964558929856,
        "lon": -60.94529967857909,
        "alt_km": 834.828893303079,
        "timestamp": "2025-12-17T23:38:06.507418+00:00",
        "meta_object_name": "NOAA 20 (JPSS-1)",
        "meta_object_id": "2017-073A",
        "meta_epoch": "2025-12-17T13:43:38.016192",
        "meta_mean_motion": 14.19527034,
        "meta_eccentricity": 0.00021448,
        "meta_inclination": 98.7604,
        "meta_ra_of_asc_node": 287.8159,
        "meta_arg_of_pericenter": 80.2569,
        "meta_mean_anomaly": 279.8849,
        "meta_ephemeris_type": 0,
        "meta_classification_type": "U",
        "meta_norad_cat_id": 43013,
        "meta_element_set_no": 999,
        "meta_rev_at_epoch": 41870,
        "meta_bstar": 5.7720213e-05,
        "meta_mean_motion_dot": 7.8e-07,
        "meta_mean_motion_ddot": 0,
        "tle_line1": "1 43013U 17073A   25351.57196778  .00000078  00000+0  57720-4 0  9994",
        "tle_line2": "2 43013  98.7604 287.8159 0002144  80.2569 279.8849 14.19527034418701"
      },
      "geometry": {
        "type": "Point",
        "coordinates": [
          -60.94529967857909,
          -50.626964558929856
        ]
      }
    },
    {
      "type": "Feature",
      "properties": {
        "norad_id": 43226,
        "name": "GOES 17",
        "group": "weather",
        "lat": -0.46379425287966863,
        "lon": -8.095448636225543,
        "alt_km": 35782.31437598232,
        "timestamp": "2025-12-17T23:38:06.507431+00:00",
        "meta_object_name": "GOES 17",
        "meta_object_id": "2018-022A",
        "meta_epoch": "2025-12-17T12:54:02.489184",
        "meta_mean_motion": 1.00271188,
        "meta_eccentricity": 0.00030915,
        "meta_inclination": 0.4704,
        "meta_ra_of_asc_node": 89.1525,
        "meta_arg_of_pericenter": 190.7991,
        "meta_mean_anomaly": 270.4737,
        "meta_ephemeris_type": 0,
        "meta_classification_type": "U",
        "meta_norad_cat_id": 43226,
        "meta_element_set_no": 999,
        "meta_rev_at_epoch": 2860,
        "meta_bstar": 0,
        "meta_mean_motion_dot": -1.58e-06,
        "meta_mean_motion_ddot": 0,
        "tle_line1": "1 43226U 18022A   25351.53752881 -.00000158  00000+0  00000+0 0  9998",
        "tle_line2": "2 43226   0.4704  89.1525 0003091 190.7991 270.4737  1.00271188 28607"
      },
      "geometry": {
        "type": "Point",
        "coordinates": [
          -8.095448636225543,
          -0.46379425287966863
        ]
      }
    },
    {
      "type": "Feature",
      "properties": {
        "norad_id": 43491,
        "name": "FENGYUN 2H",
        "group": "weather",
        "lat": 2.5244344419512963,
        "lon": 160.68919644458177,
        "alt_km": 35785.32693361747,
        "timestamp": "2025-12-17T23:38:06.507451+00:00",
        "meta_object_name": "FENGYUN 2H",
        "meta_object_id": "2018-050A",
        "meta_epoch": "2025-12-17T15:24:55.539936",
        "meta_mean_motion": 1.00271338,
        "meta_eccentricity": 0.0002456,
        "meta_inclination": 2.5632,
        "meta_ra_of_asc_node": 81.2773,
        "meta_arg_of_pericenter": 166.1771,
        "meta_mean_anomaly": 149.648,
        "meta_ephemeris_type": 0,
        "meta_classification_type": "U",
        "meta_norad_cat_id": 43491,
        "meta_element_set_no": 999,
        "meta_rev_at_epoch": 2761,
        "meta_bstar": 0,
        "meta_mean_motion_dot": -1.07e-06,
        "meta_mean_motion_ddot": 0,
        "tle_line1": "1 43491U 18050A   25351.64230949 -.00000107  00000+0  00000+0 0  9995",
        "tle_line2": "2 43491   2.5632  81.2773 0002456 166.1771 149.6480  1.00271338 27618"
      },
      "geometry": {
        "type": "Point",
        "coordinates": [
          160.68919644458177,
          2.5244344419512963
        ]
      }
    },
    {
      "type": "Feature",
      "properties": {
        "norad_id": 43689,
        "name": "METOP-C",
        "group": "weather",
        "lat": 52.48768248089822,
        "lon": -118.83104535711341,
        "alt_km": 815.4826340772725,
        "timestamp": "2025-12-17T23:38:06.507463+00:00",
        "meta_object_name": "METOP-C",
        "meta_object_id": "2018-087A",
        "meta_epoch": "2025-12-17T14:35:42.705024",
        "meta_mean_motion": 14.21486248,
        "meta_eccentricity": 0.00010135,
        "meta_inclination": 98.6924,
        "meta_ra_of_asc_node": 49.3031,
        "meta_arg_of_pericenter": 30.4871,
        "meta_mean_anomaly": 329.6365,
        "meta_ephemeris_type": 0,
        "meta_classification_type": "U",
        "meta_norad_cat_id": 43689,
        "meta_element_set_no": 999,
        "meta_rev_at_epoch": 36903,
        "meta_bstar": 7.5408833e-05,
        "meta_mean_motion_dot": 1.21e-06,
        "meta_mean_motion_ddot": 0,
        "tle_line1": "1 43689U 18087A   25351.60813316  .00000121  00000+0  75409-4 0  9990",
        "tle_line2": "2 43689  98.6924  49.3031 0001013  30.4871 329.6365 14.21486248369033"
      },
      "geometry": {
        "type": "Point",
        "coordinates": [
          -118.83104535711341,
          52.48768248089822
        ]
      }
    }
  ]
}